KUIPER-00027            
1 63740U 25088S   25324.72637341  .00002330  00000+0  33581-3 0  9992
2 63740  51.9013 217.3229 0004941 151.6421 208.4811 14.79783671 31488
KUIPER-00028            
1 63741U 25088T   25324.88001354  .00002076  00000+0  30398-3 0  9999
2 63741  51.8996 214.6362 0004340 169.6297 190.4756 14.79546162 31940
KUIPER-00029            
1 63742U 25088U   25324.71083196  .00002540  00000+0  36005-3 0  9993
2 63742  51.9023 213.2307 0010041 120.6551 239.5403 14.80187879 31472
KUIPER-00030            
1 63743U 25088V   25324.78605878 -.00011621  00000+0 -14967-2 0  9992
2 63743  51.9005 232.1094 0015707  70.3148 289.9508 14.79864966 31509
KUIPER-00031            
1 63744U 25088W   25324.73309311  .00010695  00000+0  14308-2 0  9998
2 63744  51.8999 218.4155 0004736 111.8435 248.3031 14.79896532 31409
KUIPER-00032            
1 63745U 25088X   25324.60526686  .00013006  00000+0  41566-3 0  9997
2 63745  51.8715 189.6999 0005781 105.6861 254.4762 15.32767655 32791
KUIPER-00033            
1 63746U 25088Y   25324.76824880  .00005531  00000+0  75400-3 0  9990
2 63746  51.9004 248.2452 0004113 159.2556 200.8574 14.79929596 31478
KUIPER-00034            
1 63747U 25088Z   25325.00002315 -.00002838  00000+0 -37023-3 0  9998
2 63747  51.8998 209.5796 0003239 101.6494 279.3659 14.76832480  5479
